TRANSPORTER-12 OBJECT BR
1 62672U 25009BR  26068.72617370  .00005568  00000+0  24628-3 0  9992
2 62672  97.4001 149.3786 0003861 342.5368  17.5735 15.22079833121252
TRANSPORTER-14 OBJECT V 
1 64547U 25135V   26068.73017793  .00011680  00000+0  49387-3 0  9990
2 64547  97.4496 185.0128 0001144 144.8208 215.3104 15.23374465 39771
