[{"OBJECT_NAME":"TRANSPORTER-12 OBJECT BR","OBJECT_ID":"2025-009BR","EPOCH":"2026-03-09T17:25:41.408544","MEAN_MOTION":15.22079833,"ECCENTRICITY":0.00038612,"INCLINATION":97.4001,"RA_OF_ASC_NODE":149.3786,"ARG_OF_PERICENTER":342.5368,"MEAN_ANOMALY":17.5735,"EPHEMERIS_TYPE":0,"CLASSIFICATION_TYPE":"U","NORAD_CAT_ID":62672,"ELEMENT_SET_NO":999,"REV_AT_EPOCH":12125,"BSTAR":0.00024627626,"MEAN_MOTION_DOT":5.568e-5,"MEAN_MOTION_DDOT":0},{"OBJECT_NAME":"TRANSPORTER-14 OBJECT V","OBJECT_ID":"2025-135V","EPOCH":"2026-03-09T17:31:27.373152","MEAN_MOTION":15.23374465,"ECCENTRICITY":0.00011439,"INCLINATION":97.4496,"RA_OF_ASC_NODE":185.0128,"ARG_OF_PERICENTER":144.8208,"MEAN_ANOMALY":215.3104,"EPHEMERIS_TYPE":0,"CLASSIFICATION_TYPE":"U","NORAD_CAT_ID":64547,"ELEMENT_SET_NO":999,"REV_AT_EPOCH":3977,"BSTAR":0.00049387386,"MEAN_MOTION_DOT":0.0001168,"MEAN_MOTION_DDOT":0}]
